NORAD_CAT_ID,OBJECT_NAME,OBJECT_TYPE,EPOCH,MEAN_MOTION,ECCENTRICITY,INCLINATION,RA_OF_ASC_NODE,ARG_OF_PERICENTER,MEAN_ANOMALY,BSTAR,MEAN_MOTION_DOT,MEAN_MOTION_DDOT,TLE_LINE0,TLE_LINE1,TLE_LINE2,SEMIMAJOR_AXIS,PERIOD,APOGEE,PERIGEE,DECAYED
228,DELTA 1 DEB (YO),DEBRIS,2022-09-23 13:44:18,15.03502382,0.0013781,48.4292,24.4466,24.6096,335.5484,0.0002262,2.864e-05,0.0,0 DELTA 1 DEB (YO),1 00228U 62002C   22266.57243362  .00002864  00000-0  22620-3 0  9997,2 00228  48.4292  24.4466 0013781  24.6096 335.5484 15.03502382235704,6934.244000000002,95.776,565.665,546.553,0.0
228,DELTA 1 DEB (YO),DEBRIS,2022-09-24 12:04:04,15.03509384,0.0013763,48.4294,19.8555,28.7746,331.3935,0.0002598,3.331e-05,0.0,0 DELTA 1 DEB (YO),1 00228U 62002C   22267.50282627  .00003331  00000-0  25980-3 0  9990,2 00228  48.4294  19.8555 0013763  28.7746 331.3935 15.03509384235849,6934.222,95.776,565.631,546.544,0.0
228,DELTA 1 DEB (YO),DEBRIS,2022-09-24 13:39:46,15.03509648,0.0013753,48.4294,19.5273,29.0282,331.1404,0.00025883,3.317e-05,0.0,0 DELTA 1 DEB (YO),1   228U 62002C   22267.56928280  .00003317  00000-0  25883-3 0  9994,2   228  48.4294  19.5273 0013753  29.0282 331.1404 15.03509648259984,6934.221,95.776,565.623,546.55,0.0
228,DELTA 1 DEB (YO),DEBRIS,2022-09-25 13:35:13,15.03515465,0.0013717,48.4293,14.608,33.5384,326.6407,0.00025550000000000003,3.272e-05,0.0,0 DELTA 1 DEB (YO),1 00228U 62002C   22268.56612774  .00003272  00000-0  25550-3 0  9994,2 00228  48.4293  14.6080 0013717  33.5384 326.6407 15.03515465236002,6934.203,95.776,565.58,546.557,0.0
228,DELTA 1 DEB (YO),DEBRIS,2022-09-26 07:07:53,15.0351911,0.0013683,48.4294,11.0006,36.9527,323.2338,0.00023163,2.941e-05,0.0,0 DELTA 1 DEB (YO),1   228U 62002C   22269.29714454  .00002941  00000-0  23163-3 0  9993,2   228  48.4294  11.0006 0013683  36.9527 323.2338 15.03519110260240,6934.191999999999,95.775,565.545,546.569,0.0
228,DELTA 1 DEB (YO),DEBRIS,2022-09-26 11:54:58,15.03520163,0.001368,48.4294,10.0169,37.8839,322.3046,0.00022797,2.89e-05,0.0,0 DELTA 1 DEB (YO),1 00228U 62002C   22269.49651253  .00002890  00000-0  22797-3 0  9997,2 00228  48.4294  10.0169 0013680  37.8839 322.3046 15.03520163236140,6934.189,95.775,565.54,546.568,0.0
228,DELTA 1 DEB (YO),DEBRIS,2022-09-26 13:30:40,15.03520564,0.0013677,48.4294,9.6889,38.1855,322.0036,0.00022752,2.884e-05,0.0,0 DELTA 1 DEB (YO),1 00228U 62002C   22269.56296844  .00002884  00000-0  22752-3 0  9990,2 00228  48.4294   9.6889 0013677  38.1855 322.0036 15.03520564236153,6934.188,95.775,565.5369999999998,546.569,0.0
228,DELTA 1 DEB (YO),DEBRIS,2022-09-27 08:39:01,15.03527832,0.0013665,48.4294,5.7537,41.8462,318.3505,0.00026272,3.373e-05,0.0,0 DELTA 1 DEB (YO),1   228U 62002C   22270.36043696  .00003373  00000-0  26272-3 0  9990,2   228  48.4294   5.7537 0013665  41.8462 318.3505 15.03527832260401,6934.165,95.775,565.506,546.555,0.0
228,DELTA 1 DEB (YO),DEBRIS,2022-09-27 13:26:07,15.03528553,0.001364,48.4293,4.7699,42.5938,317.6041,0.00025054,3.204e-05,0.0,0 DELTA 1 DEB (YO),1 00228U 62002C   22270.55980389  .00003204  00000-0  25054-3 0  9990,2 00228  48.4293   4.7699 0013640  42.5938 317.6041 15.03528553236307,6934.163000000001,95.775,565.486,546.57,0.0
228,DELTA 1 DEB (YO),DEBRIS,2022-09-28 06:58:46,15.03533876,0.0013614,48.4294,1.1624,45.9079,314.2964,0.0002551,3.268e-05,0.0,0 DELTA 1 DEB (YO),1 00228U 62002C   22271.29081369  .00003268  00000-0  25510-3 0  9999,2 00228  48.4294   1.1624 0013614  45.9079 314.2964 15.03533876236414,6934.147,95.774,565.452,546.572,0.0
228,DELTA 1 DEB (YO),DEBRIS,2022-09-29 11:41:17,15.03542264,0.0013598,48.4294,355.2593,51.5181,308.6961,0.00027083,3.487e-05,0.0,0 DELTA 1 DEB (YO),1   228U 62002C   22272.48700697  .00003487  00000-0  27083-3 0  9993,2   228  48.4294 355.2593 0013598  51.5181 308.6961 15.03542264260726,6934.121,95.774,565.415,546.557,0.0
228,DELTA 1 DEB (YO),DEBRIS,2022-09-30 06:49:37,15.0354777,0.001353,48.4292,351.3241,55.0715,305.1479,0.00028189,3.64e-05,0.0,0 DELTA 1 DEB (YO),1 00228U 62002C   22273.28446556  .00003640  00000-0  28189-3 0  9992,2 00228  48.4292 351.3241 0013530  55.0715 305.1479 15.03547770236714,6934.104,95.773,565.351,546.587,0.0
228,DELTA 1 DEB (YO),DEBRIS,2022-09-30 14:48:06,15.03551263,0.0013498,48.4293,349.6844,56.3607,303.8603,0.00031564,4.109e-05,0.0,0 DELTA 1 DEB (YO),1 00228U 62002C   22273.61673919  .00004109  00000-0  31564-3 0  9996,2 00228  48.4293 349.6844 0013498  56.3607 303.8603 15.03551263236762,6934.093000000003,95.773,565.318,546.599,0.0
228,DELTA 1 DEB (YO),DEBRIS,2022-10-02 11:27:32,15.03562843,0.0013491,48.4287,340.5007,64.9717,295.2607,0.00028781,3.724e-05,0.0,0 DELTA 1 DEB (YO),1   228U 62002C   22275.47746109  .00003724  00000-0  28781-3 0  9993,2   228  48.4287 340.5007 0013491  64.9717 295.2607 15.03562843261173,6934.058000000001,95.773,565.2769999999998,546.568,0.0
228,DELTA 1 DEB (YO),DEBRIS,2022-10-03 09:47:15,15.03571245,0.0013501,48.4286,335.9096,69.5652,290.6721,0.00032926,4.301e-05,0.0,0 DELTA 1 DEB (YO),1 00228U 62002C   22276.40781455  .00004301  00000-0  32926-3 0  9998,2 00228  48.4286 335.9096 0013501  69.5652 290.6721 15.03571245237185,6934.031999999997,95.772,565.259,546.535,0.0
228,DELTA 1 DEB (YO),DEBRIS,2022-10-04 09:42:38,15.03579784,0.0013472999999999998,48.4286,330.9904,74.2877,285.9532,0.00036599,4.812e-05,0.0,0 DELTA 1 DEB (YO),1 00228U 62002C   22277.40461706  .00004812  00000-0  36599-3 0  9990,2 00228  48.4286 330.9904 0013473  74.2877 285.9532 15.03579784237338,6934.0059999999985,95.771,565.2130000000002,546.528,0.0
228,DELTA 1 DEB (YO),DEBRIS,2022-10-04 20:52:29,15.03583345,0.0013479000000000002,48.4284,328.6948,76.0646,284.1776,0.00036038,4.734e-05,0.0,0 DELTA 1 DEB (YO),1   228U 62002C   22277.86978971  .00004734  00000-0  36038-3 0  9998,2   228  48.4284 328.6948 0013479  76.0646 284.1776 15.03583345261536,6933.995,95.771,565.206,546.513,0.0
228,DELTA 1 DEB (YO),DEBRIS,2022-10-06 07:57:43,15.03597688,0.0013458,48.4281,321.4782,83.2708,276.9748,0.00038592,5.091e-05,0.0,0 DELTA 1 DEB (YO),1 00228U 62002C   22279.33175022  .00005091  00000-0  38592-3 0  9992,2 00228  48.4281 321.4782 0013458  83.2708 276.9748 15.03597688237622,6933.951,95.77,565.1469999999998,546.484,0.0
228,DELTA 1 DEB (YO),DEBRIS,2022-10-07 03:06:00,15.03604983,0.0013477,48.4278,317.5428,86.8845,273.3621,0.0003591,4.72e-05,0.0,0 DELTA 1 DEB (YO),1   228U 62002C   22280.12917717  .00004720  00000-0  35910-3 0  9995,2   228  48.4278 317.5428 0013477  86.8845 273.3621 15.03604983261875,6933.928000000001,95.77,565.138,546.448,0.0
228,DELTA 1 DEB (YO),DEBRIS,2022-10-07 09:28:46,15.03608427,0.0013462,48.4278,316.2309,88.0323,272.2143,0.0003785,4.99e-05,0.0,0 DELTA 1 DEB (YO),1 00228U 62002C   22280.39498491  .00004990  00000-0  37850-3 0  9991,2 00228  48.4278 316.2309 0013462  88.0323 272.2143 15.03608427237785,6933.918000000002,95.77,565.117,546.448,0.0
228,DELTA 1 DEB (YO),DEBRIS,2022-10-08 09:24:08,15.03616382,0.0013478,48.4276,311.311,92.713,267.5337,0.00030961,4.033e-05,0.0,0 DELTA 1 DEB (YO),1 00228U 62002C   22281.39176053  .00004033  00000-0  30961-3 0  9993,2 00228  48.4276 311.3110 0013478  92.7130 267.5337 15.03616382237932,6933.893,95.769,565.104,546.413,0.0
228,DELTA 1 DEB (YO),DEBRIS,2022-10-09 06:08:06,15.03626093,0.0013487,48.4274,307.0469,96.7682,263.4777,0.00035909,4.722e-05,0.0,0 DELTA 1 DEB (YO),1   228U 62002C   22282.25562767  .00004722  00000-0  35909-3 0  9992,2   228  48.4274 307.0469 0013487  96.7682 263.4777 15.03626093262194,6933.863,95.768,565.08,546.377,0.0
228,DELTA 1 DEB (YO),DEBRIS,2022-10-09 18:53:37,15.03632321,0.0013488,48.4273,304.423,99.2046,261.0405,0.00038943,5.145e-05,0.0,0 DELTA 1 DEB (YO),1 00228U 62002C   22282.78723538  .00005145  00000-0  38943-3 0  9996,2 00228  48.4273 304.4230 0013488  99.2046 261.0405 15.03632321238144,6933.844,95.768,565.061,546.357,0.0
228,DELTA 1 DEB (YO),DEBRIS,2022-10-10 07:39:07,15.03637256,0.0013505999999999998,48.427,301.7989,101.666,258.5781,0.00038372,5.066e-05,0.0,0 DELTA 1 DEB (YO),1 00228U 62002C   22283.31884121  .00005066  00000-0  38372-3 0  9990,2 00228  48.4270 301.7989 0013506 101.6660 258.5781 15.03637256238222,6933.829000000002,95.768,565.059,546.3290000000002,0.0
228,DELTA 1 DEB (YO),DEBRIS,2022-10-11 07:34:27,15.03649027,0.0013531,48.4269,296.8788,106.2475,253.9939,0.00039792,5.266e-05,0.0,0 DELTA 1 DEB (YO),1 00228U 62002C   22284.31559572  .00005266  00000-0  39792-3 0  9999,2 00228  48.4269 296.8788 0013531 106.2475 253.9939 15.03649027238373,6933.793000000002,95.767,565.04,546.276,0.0
228,DELTA 1 DEB (YO),DEBRIS,2022-10-12 07:29:46,15.03659729,0.0013558,48.4269,291.9586,110.9311,249.3066,0.00036109,4.755e-05,0.0,0 DELTA 1 DEB (YO),1 00228U 62002C   22285.31234229  .00004755  00000-0  36109-3 0  9990,2 00228  48.4269 291.9586 0013558 110.9311 249.3066 15.03659729238522,6933.76,95.766,565.026,546.224,0.0
228,DELTA 1 DEB (YO),DEBRIS,2022-10-13 07:25:04,15.036679199999998,0.0013595,48.4271,287.0386,115.4594,244.7739,0.00030023,3.908e-05,0.0,0 DELTA 1 DEB (YO),1 00228U 62002C   22286.30908298  .00003908  00000-0  30023-3 0  9992,2 00228  48.4271 287.0386 0013595 115.4594 244.7739 15.03667920238677,6933.735,95.766,565.026,546.173,0.0
228,DELTA 1 DEB (YO),DEBRIS,2022-10-13 16:59:11,15.03671069,0.00136,48.4271,285.0702,117.3041,242.927,0.00028753,3.732e-05,0.0,0 DELTA 1 DEB (YO),1 00228U 62002C   22286.70777763  .00003732  00000-0  28753-3 0  9999,2 00228  48.4271 285.0702 0013600 117.3041 242.9270 15.03671069238738,6933.725,95.766,565.02,546.16,0.0
228,DELTA 1 DEB (YO),DEBRIS,2022-10-14 05:44:41,15.03676148,0.0013626,48.4272,282.446,119.8603,240.3677,0.00030999,4.045e-05,0.0,0 DELTA 1 DEB (YO),1 00228U 62002C   22287.23936911  .00004045  00000-0  30999-3 0  9993,2 00228  48.4272 282.4460 0013626 119.8603 240.3677 15.03676148238815,6933.709,95.765,565.0219999999998,546.126,0.0
